[{"OBJECT_NAME":"STARLINK-31891","OBJECT_ID":"2024-097V","EPOCH":"2026-03-09T13:24:38.093472","MEAN_MOTION":15.27609844,"ECCENTRICITY":9.02e-5,"INCLINATION":43.0032,"RA_OF_ASC_NODE":275.3703,"ARG_OF_PERICENTER":281.3494,"MEAN_ANOMALY":78.7257,"EPHEMERIS_TYPE":0,"CLASSIFICATION_TYPE":"U","NORAD_CAT_ID":59854,"ELEMENT_SET_NO":999,"REV_AT_EPOCH":10189,"BSTAR":-0.00023573713,"MEAN_MOTION_DOT":-6.749e-5,"MEAN_MOTION_DDOT":0},{"OBJECT_NAME":"BREEZE-M DEB [TANK]","OBJECT_ID":"2010-053C","EPOCH":"2026-03-09T19:18:37.714752","MEAN_MOTION":5.4047101,"ECCENTRICITY":0.51003638,"INCLINATION":49.5413,"RA_OF_ASC_NODE":233.3582,"ARG_OF_PERICENTER":138.8418,"MEAN_ANOMALY":273.7448,"EPHEMERIS_TYPE":0,"CLASSIFICATION_TYPE":"U","NORAD_CAT_ID":37187,"ELEMENT_SET_NO":999,"REV_AT_EPOCH":29630,"BSTAR":0.0020562765,"MEAN_MOTION_DOT":6.686e-5,"MEAN_MOTION_DDOT":0}]
